IRIDIUM 159             
1 43578U 18061K   24292.77826221  .00000296  00000+0  98683-4 0  9991
2 43578  86.3929 310.1351 0002178  90.9966 269.1480 14.34218285326466
IRIDIUM 180             
1 43922U 19002A   24292.84753556  .00001167  00000+0  40940-3 0  9998
2 43922  86.3954 246.9347 0002148  83.9449 276.1992 14.34220775302088
IRIDIUM 176             
1 43923U 19002B   24292.81906529  .00001166  00000+0  18096-3 0  9992
2 43923  86.6081 246.9578 0002027  93.1013 267.0436 14.72250196310033
IRIDIUM 168             
1 43924U 19002C   24292.77143076  .00001275  00000+0  44828-3 0  9991
2 43924  86.3955 247.0269 0002220  84.8185 275.3264 14.34220907302051
IRIDIUM 173             
1 43925U 19002D   24292.82850219  .00001207  00000+0  42402-3 0  9993
2 43925  86.3951 246.9167 0002164  81.4396 278.7045 14.34221137302046
IRIDIUM 169             
1 43926U 19002E   24292.93458644  .00000526  00000+0  16535-3 0  9993
2 43926  86.4167 278.5163 0002858 127.9124 232.2333 14.38607103303062
IRIDIUM 172             
1 43927U 19002F   24292.61286060  .00001285  00000+0  45173-3 0  9993
2 43927  86.3950 247.0128 0002252  84.4854 275.6599 14.34223086302029
IRIDIUM 175             
1 43928U 19002G   24292.74558716  .00004894  00000+0  77130-3 0  9995
2 43928  86.1557 213.1863 0003013  96.3242 263.8318 14.72274988310015
